STARLINK-3630           
1 51796U 22017AE  22066.91667824  .00085231  00000+0  60464-3 0  9990
2 51796  53.2184  92.7273 0001248  55.2488 191.5102 15.73235315  2107
STARLINK-3627           
1 51797U 22017AF  22066.91667824  .00091034  00000+0  64669-3 0  9990
2 51797  53.2202  92.7349 0001142  54.2543 188.5962 15.73176278  2109
STARLINK-3634           
1 51798U 22017AG  22066.91667824  .00091409  00000+0  64902-3 0  9997
2 51798  53.2185  92.7262 0001103  43.1699 204.1992 15.73186809  2109
STARLINK-3637           
1 51799U 22017AH  22066.91667824  .00091080  00000+0  64643-3 0  9995
2 51799  53.2183  92.7296 0001765  59.8659 185.6014 15.73196773  2108
STARLINK-3600           
1 51800U 22017AJ  22066.91667824 -.00022063  00000+0 -15305-3 0  9996
2 51800  53.2186  92.7233 0001154  62.5450 186.3858 15.73222739  2103
STARLINK-3592           
1 51801U 22017AK  22066.91667824  .00072516  00000+0  51597-3 0  9996
2 51801  53.2203  92.7282 0001775  70.4906 175.6904 15.73230234  2103
STARLINK-3557           
1 51802U 22017AL  22066.91667824 -.00576869  00000+0 -43516-2 0  9990
2 51802  53.2193  92.7169 0000935  69.9768 180.1662 15.73431175  2123
STARLINK-3544           
1 51803U 22017AM  22066.91667824 -.00038724  00000+0 -27229-3 0  9998
2 51803  53.2199  92.7225 0001250  62.1074 186.1984 15.73240269  2102
STARLINK-3601           
1 51804U 22017AN  22066.91667824  .00094846  00000+0  67360-3 0  9994
2 51804  53.2229  92.7002 0001302  44.0971 216.3410 15.73165316  2113
STARLINK-3605           
1 51805U 22017AP  22066.91667824 -.00014365  00000+0 -98041-4 0  9996
2 51805  53.2203  92.7217 0001296  50.2957 199.2526 15.73215039  2103
STARLINK-3581           
1 51806U 22017AQ  22066.91667824  .00087696  00000+0  62855-3 0  9995
2 51806  53.2186  92.7103 0001491  58.6270 194.1673 15.72982638  2118
STARLINK-3606           
1 51807U 22017AR  22066.91667824 -.00043520  00000+0 -30695-3 0  9993
2 51807  53.2204  92.7190 0001392  58.9342 191.9170 15.73223880  2103
STARLINK-3609           
1 51808U 22017AS  22066.91667824  .00092190  00000+0  65446-3 0  9991
2 51808  53.2188  92.7134 0000869  52.1730 201.6159 15.73187071  2116
STARLINK-3607           
1 51809U 22017AT  22066.91667824 -.00022734  00000+0 -15796-3 0  9994
2 51809  53.2205  92.7178 0001265  58.7008 192.7566 15.73205782  2107
STARLINK-3613           
1 51810U 22017AU  22066.91667824 -.00063223  00000+0 -44820-3 0  9994
2 51810  53.2189  92.7105 0001540  47.8061 207.4826 15.73263207  2114
STARLINK-3569           
1 51811U 22017AV  22066.91667824 -.00019409  00000+0 -13459-3 0  9996
2 51811  53.2177  92.7092 0001374  71.1852 182.0935 15.73131232  2122
STARLINK-3610           
1 51812U 22017AW  22066.91667824  .00113396  00000+0  80102-3 0  9994
2 51812  53.2186  92.7097 0001526  74.5211 181.2176 15.73214124  2123
STARLINK-3552           
1 51813U 22017AX  22066.91667824  .00581707  00000+0  39275-2 0  9994
2 51813  53.2183  92.7054 0000964  89.4543 165.1731 15.72844786  2122
STARLINK-3599           
1 51814U 22017AY  22066.91667824  .00099777  00000+0  70670-3 0  9991
2 51814  53.2190  92.7076 0001002  54.1115 202.7957 15.73207582  2129
STARLINK-3604           
1 51815U 22017AZ  22066.91667824  .00061264  00000+0  43762-3 0  9994
2 51815  53.2205  92.7073 0001463  51.1465 205.4402 15.73206671  2112
STARLINK-3603           
1 51816U 22017BA  22066.91667824  .00097623  00000+0  69283-3 0  9999
2 51816  53.2189  92.7061 0000908  57.1454 200.4485 15.73169887  2111
STARLINK-3596           
1 51817U 22017BB  22066.91667824 -.00292894  00000+0 -11091-2 0  9992
2 51817  53.2172  92.2231 0005358 275.8732 225.0195 15.87566509  2118
FALCON 9 DEB            
1 51818U 22017BC  22066.51291480  .00169124  21446-4  56543-3 0  9991
2 51818  53.2303  94.2396 0006106 314.5820  45.4709 15.89865607  1566
FALCON 9 DEB            
1 51819U 22017BD  22066.57318235  .00191737  24526-4  62097-3 0  9994
2 51819  53.2288  93.9028 0003836 296.8014  63.2621 15.90464539  1574
FALCON 9 DEB            
1 51820U 22017BE  22066.56690024  .00205274  26738-4  62502-3 0  9994
2 51820  53.2261  93.8571 0007987 277.2770  82.7350 15.91597786  1579
FALCON 9 DEB            
1 51821U 22017BF  22066.56477285  .00195587  25350-4  58717-3 0  9994
2 51821  53.2241  93.8395 0006781 257.1818 102.8453 15.91902110  1572
L-SAR 01B               
1 51822U 22018A   22066.97098536  .00000851  00000+0  97678-4 0  9998
2 51822  97.8111  75.7898 0001707 104.1628 255.9809 14.88416862  1331
CZ-4C R/B               
1 51823U 22018B   22066.92153237  .00007756  00000+0  28622-3 0  9997
2 51823  97.8614  76.2816 0134319  10.5727 349.8306 15.19920159  1364
2022-019A               
1 51824U 22019A   22066.81936755  .00002913  00000+0  18970-3 0  9996
2 51824  97.5220 143.4437 0019587 238.5074 260.6878 15.08569192  1310
2022-019B               
1 51825U 22019B   22066.93498454  .00002532  00000+0  16439-3 0  9994
2 51825  97.5207 143.5563 0017481 234.5489 180.3825 15.08827689  1323
2022-019C               
1 51826U 22019C   22066.95575053  .00003344  00000+0  21478-3 0  9999
2 51826  97.5200 143.5775 0016844 235.8930 297.6914 15.09022086  1329
2022-019D               
1 51827U 22019D   22066.95520049  .00002512  00000+0  16210-3 0  9999
2 51827  97.5213 143.5810 0015605 234.8393 298.3796 15.09097977  1327
2022-019E               
1 51828U 22019E   22066.93319620  .00003042  00000+0  19524-3 0  9999
2 51828  97.5206 143.5592 0016388 237.3763 177.0939 15.09124852  1320
2022-019F               
1 51829U 22019F   22066.95468072  .00004401  00000+0  28011-3 0  9999
2 51829  97.5251 143.5878 0015688 236.9515 296.1172 15.09198067  1321
2022-019G               
1 51830U 22019G   22066.93283568  .00004464  00000+0  28399-3 0  9992
2 51830  97.5194 143.5538 0016461 236.6875 177.8388 15.09200854  1320
2022-019H               
1 51831U 22019H   22066.95446850  .00003039  00000+0  19440-3 0  9994
2 51831  97.5215 143.5784 0016874 245.3227 288.3674 15.09241803  1329
2022-019J               
1 51832U 22019J   22066.95436360  .00002720  00000+0  17431-3 0  9994
2 51832  97.5202 143.5797 0017212 243.4127 290.1373 15.09252642  1325
2022-019K               
1 51833U 22019K   22066.93655119  .00003832  00000+0  24205-3 0  9990
2 51833  97.5188 143.5643 0014891 240.3845 206.0598 15.09567542  1325
2022-019L               
1 51834U 22019L   22066.95267853  .00002988  00000+0  18957-3 0  9995
2 51834  97.5216 143.5910 0015458 243.2528 291.1127 15.09570294  1326
2022-019M               
1 51835U 22019M   22066.95252064  .00003063  00000+0  19423-3 0  9998
2 51835  97.5213 143.5800 0015459 243.9454 289.7459 15.09576698  1323
2022-019N               
1 51836U 22019N   22066.80977922  .00004428  00000+0  27860-3 0  9990
2 51836  97.5211 143.4448 0015217 244.6766 235.0172 15.09627798  1307
2022-019P               
1 51837U 22019P   22066.95126962  .00004492  00000+0  28131-3 0  9990
2 51837  97.5158 143.5773 0014563 245.2945 288.1562 15.09796179  1323
2022-019Q               
1 51838U 22019Q   22067.00834581  .00003152  00000+0  19839-3 0  9998
2 51838  97.5211 143.6451 0014332 243.5081 241.5098 15.09833435  1339
2022-019R               
1 51839U 22019R   22066.95099971  .00003071  00000+0  19338-3 0  9992
2 51839  97.5201 143.5826 0014260 243.3968 290.2793 15.09837498  1321
2022-019S               
1 51840U 22019S   22066.95073154  .00003085  00000+0  19416-3 0  9991
2 51840  97.5206 143.5828 0014231 241.5025 291.4686 15.09861537  1327
2022-019T               
1 51841U 22019T   22066.93958587  .00003051  00000+0  19169-3 0  9990
2 51841  97.5204 143.5765 0014051 240.7857 233.6375 15.09924533  1329
2022-019U               
1 51842U 22019U   22066.93573475  .00006182  00000+0  25500-3 0  9994
2 51842  97.5676 143.8026 0071542 182.3766 293.0198 15.22071533  1336
2022-019V               
1 51843U 22019V   22066.95000942  .00002028  00000+0  12854-3 0  9994
2 51843  97.5241 143.5918 0014426 247.8736 285.4463 15.09987539  1320
2022-019W               
1 51844U 22019W   22066.95515156  .00002983  00000+0  19157-3 0  9996
2 51844  97.5198 143.5835 0017306 246.0633 286.7431 15.09096271  1229
2022-019X               
1 51845U 22019X   22066.95190583  .00003876  00000+0  24398-3 0  9995
2 51845  97.5211 143.5867 0015106 243.1743 290.5149 15.09689248  1240
2022-019Y               
1 51846U 22019Y   22066.95161993  .00003069  00000+0  19382-3 0  9990
2 51846  97.5192 143.5893 0015024 241.1164 292.5354 15.09730343  1245
STRIX-BETA              
1 51847U 22020A   22066.82096217  .00002397  00000+0  19232-3 0  9992
2 51847  97.7757 120.5961 0012904 269.4879  90.4878 15.01004773  1043
ELECTRON KICK STAGE R/B 
1 51848U 22020B   22066.88154860  .00006777  00000+0  33243-3 0  9992
2 51848  97.0921 119.4141 0060522   6.9968 353.2194 15.16776693  1065
ELECTRON R/B            
1 51849U 20020C   22064.62869078  .01288007  23223-5  10859-2 0  9999
2 51849  97.7267 118.7273 0275488 206.0334 152.6879 15.67717911   731
2022-021A               
1 51850U 22021A   22063.38462291 -.00000170  00000+0  00000+0 0  9991
2 51850   9.3026 334.2785 4593342 180.0467 178.8216  1.80046017    54
2022-021B               
1 51851U 22022B   22061.16528521 -.00000182  00000+0  00000+0 0  9999
2 51851   9.3750 334.5324 4632108 179.5801 175.9040  1.80759695    01
STARLINK A              
1 51852U 22022A   22066.83334491 -.00881354  00000+0 -47937-2 0  9992
2 51852  53.2174 123.3742 0001120  75.5017  96.1659 15.81509683  1931
STARLINK B              
1 51853U 22022B   22066.83334491 -.00881241  00000+0 -47980-2 0  9996
2 51853  53.2174 123.3751 0001152  68.4592 102.9241 15.81487236  1882
STARLINK C              
1 51854U 22022C   22066.83334491 -.00881514  00000+0 -47897-2 0  9997
2 51854  53.2173 123.3736 0001117  83.3129  88.6443 15.81531807  1932
